ONEWEB-0363             
1 49289U 21090L   25247.18274285  .00000116  00000+0  25443-3 0  9999
2 49289  87.9289 331.4499 0002312  96.6545 263.4852 13.20773978192552
ONEWEB-0364             
1 49290U 21090M   25247.22063181  .00000022  00000+0  23239-4 0  9995
2 49290  87.9282 331.4691 0002001  96.6879 263.4482 13.20771995193698
ONEWEB-0365             
1 49291U 21090N   25247.05411948 -.00000024  00000+0 -92211-4 0  9995
2 49291  87.9282   1.8357 0001691  97.8372 262.2952 13.19723679188687
ONEWEB-0366             
1 49292U 21090P   25247.23301801 -.00000177  00000+0 -51290-3 0  9992
2 49292  87.9086 346.6474 0001885 100.0623 260.0720 13.14502821189994
ONEWEB-0367             
1 49293U 21090Q   25247.18117020  .00000134  00000+0  29730-3 0  9990
2 49293  87.9291 331.4453 0001734 101.9602 258.1725 13.20773687192075
ONEWEB-0368             
1 49294U 21090R   25247.23008845  .00000067  00000+0  13369-3 0  9997
2 49294  87.9286 331.4717 0002125  76.2459 283.8910 13.20771147193231
ONEWEB-0369             
1 49295U 21090S   25247.27683884 -.00000092  00000+0 -26248-3 0  9994
2 49295  87.9279   1.8231 0001769  98.3406 261.7928 13.19725568188707
ONEWEB-0370             
1 49296U 21090T   25247.19063189  .00000147  00000+0  33042-3 0  9995
2 49296  87.9296 331.4514 0001827 109.8287 250.3043 13.20773728192118
